NORAD_CAT_ID,OBJECT_NAME,OBJECT_TYPE,EPOCH,MEAN_MOTION,ECCENTRICITY,INCLINATION,RA_OF_ASC_NODE,ARG_OF_PERICENTER,MEAN_ANOMALY,BSTAR,MEAN_MOTION_DOT,MEAN_MOTION_DDOT,TLE_LINE0,TLE_LINE1,TLE_LINE2,SEMIMAJOR_AXIS,PERIOD,APOGEE,PERIGEE,DECAYED
50199.0,STARLINK-3270,PAYLOAD,2022-10-14 15:47:42,15.08837676,0.0002299,53.217,54.8118,31.8729,328.2402,3.6007e-05,2.85e-06,0.0,0 STARLINK-3270,1 50199U 21125AV  22287.65813160  .00000285  00000-0  36007-4 0  9991,2 50199  53.2170  54.8118 0002299  31.8729 328.2402 15.08837676 48748,6917.887,95.438,541.3430000000002,538.1619999999998,0.0
50199.0,STARLINK-3270,PAYLOAD,2022-10-15 01:20:00,15.08850332,0.0002166999999999,53.2167,53.0279,33.0293,327.0834,0.00021635,3.158e-05,0.0,0 STARLINK-3270,1 50199U 21125AV  22288.05556527  .00003158  00000-0  21635-3 0  9999,2 50199  53.2167  53.0279 0002167  33.0293 327.0834 15.08850332 48804,6917.849,95.437,541.2130000000002,538.215,0.0
50199.0,STARLINK-3270,PAYLOAD,2022-10-15 12:27:42,15.08852277,0.0002251,53.2174,50.9463,33.9053,326.2083,0.0002253,3.3e-05,0.0,0 STARLINK-3270,1 50199U 21125AV  22288.51924345  .00003300  00000-0  22530-3 0  9991,2 50199  53.2174  50.9463 0002251  33.9053 326.2083 15.08852277 49358,6917.843000000003,95.437,541.265,538.151,0.0
50199.0,STARLINK-3270,PAYLOAD,2022-10-15 17:13:52,15.088416199999998,0.0002102,53.2175,50.0538,32.503,327.6091,-4.0307e-05,-9.3e-06,0.0,0 STARLINK-3270,1 50199U 21125AV  22288.71796470 -.00000930  00000-0 -40307-4 0  9990,2 50199  53.2175  50.0538 0002102  32.5030 327.6091 15.08841620 49385,6917.875,95.437,541.195,538.286,0.0
50199.0,STARLINK-3270,PAYLOAD,2022-10-16 04:21:34,15.08829359,0.00022,53.2176,47.9718,32.0275,328.085,-9.5057e-05,-1.8e-05,0.0,0 STARLINK-3270,1 50199U 21125AV  22289.18165336 -.00001800  00000-0 -95057-4 0  9992,2 50199  53.2176  47.9718 0002200  32.0275 328.0850 15.08829359 48973,6917.913000000001,95.438,541.3,538.256,0.0
50199.0,STARLINK-3270,PAYLOAD,2022-10-16 12:18:30,15.08839455,0.0002316999999999,53.217,46.4853,33.9598,326.1543,0.00018884,2.718e-05,0.0,0 STARLINK-3270,1 50199U 21125AV  22289.51285186  .00002718  00000-0  18884-3 0  9994,2 50199  53.2170  46.4853 0002317  33.9598 326.1543 15.08839455 49504,6917.882,95.438,541.35,538.144,0.0
50199.0,STARLINK-3270,PAYLOAD,2022-10-16 17:04:39,15.08842424,0.0002311,53.2168,45.5936,34.1843,325.9298,0.00068327,0.00010604,0.0,0 STARLINK-3270,1 50199U 21125AV  22289.71157274  .00010604  00000-0  68327-3 0  9992,2 50199  53.2168  45.5936 0002311  34.1843 325.9298 15.08842424 49530,6917.873000000001,95.437,541.337,538.139,0.0
50199.0,STARLINK-3270,PAYLOAD,2022-10-17 12:09:17,15.08837453,0.0002465,53.2169,42.0258,30.183000000000003,329.9304,0.00024163,3.559e-05,0.0,0 STARLINK-3270,1 50199U 21125AV  22290.50645647  .00003559  00000-0  24163-3 0  9998,2 50199  53.2169  42.0258 0002465  30.1830 329.9304 15.08837453 49170,6917.888000000001,95.438,541.4580000000002,538.048,0.0
50199.0,STARLINK-3270,PAYLOAD,2022-10-17 13:44:40,15.08835762,0.0002128,53.2172,41.7282,30.5622,329.5493,0.00014531,2.025e-05,0.0,0 STARLINK-3270,1 50199U 21125AV  22290.57269585  .00002025  00000-0  14531-3 0  9993,2 50199  53.2172  41.7282 0002128  30.5622 329.5493 15.08835762 49666,6917.893,95.438,541.23,538.286,0.0
50199.0,STARLINK-3270,PAYLOAD,2022-10-17 16:55:27,15.08840892,0.0002198,53.2172,41.1338,30.3968,329.7151,0.00038395,5.828e-05,0.0,0 STARLINK-3270,1 50199U 21125AV  22290.70517584  .00005828  00000-0  38395-3 0  9991,2 50199  53.2172  41.1338 0002198  30.3968 329.7151 15.08840892 49685,6917.878000000002,95.437,541.263,538.222,0.0
50199.0,STARLINK-3270,PAYLOAD,2022-10-18 10:24:41,15.08840663,0.0002198999999999,53.217,37.8621,31.3787,328.7336,0.00040872,6.223e-05,0.0,0 STARLINK-3270,1 50199U 21125AV  22291.43381769  .00006223  00000-0  40872-3 0  9999,2 50199  53.2170  37.8621 0002199  31.3787 328.7336 15.08840663 49793,6917.878000000002,95.438,541.265,538.222,0.0
50199.0,STARLINK-3270,PAYLOAD,2022-10-18 16:46:14,15.08829246,0.0002384999999999,53.2172,36.6735,30.3777,329.7353,-3.2414e-05,-8.04e-06,0.0,0 STARLINK-3270,1 50199U 21125AV  22291.69878115 -.00000804  00000-0 -32414-4 0  9998,2 50199  53.2172  36.6735 0002385  30.3777 329.7353 15.08829246 49359,6917.913000000001,95.438,541.428,538.128,0.0
50199.0,STARLINK-3270,PAYLOAD,2022-10-19 11:50:52,15.08845661,0.0002459,53.2178,33.1056,29.3425,330.7705,0.00041317,6.295e-05,0.0,0 STARLINK-3270,1 50199U 21125AV  22292.49366122  .00006295  00000-0  41317-3 0  9996,2 50199  53.2178  33.1056 0002459  29.3425 330.7705 15.08845661 49951,6917.863,95.437,541.429,538.0269999999998,0.0
50199.0,STARLINK-3270,PAYLOAD,2022-10-20 13:17:02,15.08840553,0.0002533,53.218,28.3474,31.7819,328.3326,0.00020773,3.019e-05,0.0,0 STARLINK-3270,1 50199U 21125AV  22293.55350539  .00003019  00000-0  20773-3 0  9993,2 50199  53.2180  28.3474 0002533  31.7819 328.3326 15.08840553 49633,6917.879,95.438,541.496,537.991,0.0
50199.0,STARLINK-3270,PAYLOAD,2022-10-20 16:27:49,15.08842081,0.0002538,53.2181,27.7527,31.9611,328.1534,0.00021073,3.067e-05,0.0,0 STARLINK-3270,1 50199U 21125AV  22293.68598493  .00003067  00000-0  21073-3 0  9997,2 50199  53.2181  27.7527 0002538  31.9611 328.1534 15.08842081 50137,6917.874,95.437,541.495,537.9830000000002,0.0
50199.0,STARLINK-3270,PAYLOAD,2022-10-21 13:07:49,15.08844501,0.0002535,53.218,23.8876,33.346,326.7692,0.00010274,1.347e-05,0.0,0 STARLINK-3270,1 50199U 21125AV  22294.54710284  .00001347  00000-0  10274-3 0  9997,2 50199  53.2180  23.8876 0002535  33.3460 326.7692 15.08844501 50267,6917.8669999999975,95.437,541.485,537.9780000000002,0.0
50199.0,STARLINK-3270,PAYLOAD,2022-10-22 05:01:41,15.08839384,0.000254,53.2181,20.9138,33.7835,326.3319,7.847899999999999e-05,9.61e-06,0.0,0 STARLINK-3270,1 50199U 21125AV  22295.20950441  .00000961  00000-0  78479-4 0  9995,2 50199  53.2181  20.9138 0002540  33.7835 326.3319 15.08839384 49884,6917.882,95.438,541.504,537.99,0.0
50199.0,STARLINK-3270,PAYLOAD,2022-10-22 12:58:37,15.08818188,0.0003162,53.219,19.4267,28.0609,332.0553,0.00034669,5.23e-05,0.0,0 STARLINK-3270,1 50199U 21125AV  22295.54071741  .00005230  00000-0  34669-3 0  9995,2 50199  53.2190  19.4267 0003162  28.0609 332.0553 15.08818188 49936,6917.946999999999,95.439,542.0,537.625,0.0
50199.0,STARLINK-3270,PAYLOAD,2022-10-22 14:34:00,15.08832735,0.0002682,53.2186,19.1293,30.4241,329.6906,-3.5077e-05,-8.47e-06,0.0,0 STARLINK-3270,1 50199U 21125AV  22295.60694904 -.00000847  00000-0 -35077-4 0  9990,2 50199  53.2186  19.1293 0002682  30.4241 329.6906 15.08832735 49941,6917.903,95.438,541.623,537.9119999999998,0.0
50199.0,STARLINK-3270,PAYLOAD,2022-10-23 03:17:04,15.08850668,0.0002514,53.2186,16.7514,30.4891,329.6247,0.00029112,4.349e-05,0.0,0 STARLINK-3270,1 50199U 21125AV  22296.13686151  .00004349  00000-0  29112-3 0  9995,2 50199  53.2186  16.7514 0002514  30.4891 329.6247 15.08850668 50029,6917.848000000001,95.437,541.452,537.974,0.0
50199.0,STARLINK-3270,PAYLOAD,2022-10-23 11:14:00,15.08862222,0.0002525999999999,53.2181,15.2641,28.9025,331.2106,0.00091674,0.00014341,0.0,0 STARLINK-3270,1 50199U 21125AV  22296.46805877  .00014341  00000-0  91674-3 0  9994,2 50199  53.2181  15.2641 0002526  28.9025 331.2106 15.08862222 50553,6917.812,95.436,541.425,537.93,0.0
50199.0,STARLINK-3270,PAYLOAD,2022-10-23 14:24:46,15.08866975,0.0002575,53.2179,14.6698,29.0156,331.0979,0.00097266,0.00015237,0.0,0 STARLINK-3270,1 50199U 21125AV  22296.60053653  .00015237  00000-0  97266-3 0  9995,2 50199  53.2179  14.6698 0002575  29.0156 331.0979 15.08866975 50090,6917.7980000000025,95.436,541.444,537.882,0.0
50199.0,STARLINK-3270,PAYLOAD,2022-10-24 03:07:51,15.08852373,0.0002413,53.2171,12.2895,28.9536,331.1589,0.00013155,1.807e-05,0.0,0 STARLINK-3270,1 50199U 21125AV  22297.13045265  .00001807  00000-0  13155-3 0  9997,2 50199  53.2171  12.2895 0002413  28.9536 331.1589 15.08852373 50170,6917.843000000003,95.437,541.377,538.038,0.0
50199.0,STARLINK-3270,PAYLOAD,2022-10-24 09:29:24,15.08830196,0.000254,53.2184,11.1013,28.3904,331.7226,-9.7012e-05,-1.832e-05,0.0,0 STARLINK-3270,1 50199U 21125AV  22297.39542326 -.00001832  00000-0 -97012-4 0  9990,2 50199  53.2184  11.1013 0002540  28.3904 331.7226 15.08830196 50698,6917.91,95.438,541.533,538.018,0.0
50199.0,STARLINK-3270,PAYLOAD,2022-10-24 11:04:47,15.08834034,0.0002378,53.2189,10.803,31.4599,328.6535,-7.2324e-05,-1.439e-05,0.0,0 STARLINK-3270,1 50199U 21125AV  22297.46166098 -.00001439  00000-0 -72324-4 0  9998,2 50199  53.2189  10.8030 0002378  31.4599 328.6535 15.08834034 50224,6917.899,95.438,541.409,538.119,0.0
50199.0,STARLINK-3270,PAYLOAD,2022-10-24 14:15:34,15.08825043,0.0002656,53.218,10.2111,28.2672,331.8464,-0.00019726,-3.425e-05,0.0,0 STARLINK-3270,1 50199U 21125AV  22297.59414744 -.00003425  00000-0 -19726-3 0  9999,2 50199  53.2180  10.2111 0002656  28.2672 331.8464 15.08825043 50726,6917.926,95.439,541.629,537.9540000000002,0.0
50199.0,STARLINK-3270,PAYLOAD,2022-10-25 10:55:35,15.08827096,0.0002555,53.2184,6.343999999999999,31.414,328.7004,-0.00013884,-2.497e-05,0.0,0 STARLINK-3270,1 50199U 21125AV  22298.45527452 -.00002497  00000-0 -13884-3 0  9993,2 50199  53.2184   6.3440 0002555  31.4140 328.7004 15.08827096 50854,6917.92,95.438,541.552,538.0169999999998,0.0
50199.0,STARLINK-3270,PAYLOAD,2022-10-26 04:24:50,15.08833763,0.0002667,53.2181,3.0735,32.1829,327.9326,0.00026805,3.98e-05,0.0,0 STARLINK-3270,1 50199U 21125AV  22299.18391970  .00003980  00000-0  26805-3 0  9991,2 50199  53.2181   3.0735 0002667  32.1829 327.9326 15.08833763 50483,6917.899,95.438,541.609,537.919,0.0
50199.0,STARLINK-3270,PAYLOAD,2022-10-26 10:46:23,15.08839028,0.0002657,53.2182,1.884,32.4864,327.6292,0.00043522,6.645e-05,0.0,0 STARLINK-3270,1 50199U 21125AV  22299.44888067  .00006645  00000-0  43522-3 0  9994,2 50199  53.2182   1.8840 0002657  32.4864 327.6292 15.08839028 51006,6917.8830000000025,95.438,541.586,537.91,0.0
